[{"OBJECT_NAME":"STARLINK-30212","OBJECT_ID":"2023-113M","EPOCH":"2026-03-09T22:00:01.999584","MEAN_MOTION":15.26693473,"ECCENTRICITY":0.0001577,"INCLINATION":43.0002,"RA_OF_ASC_NODE":15.1344,"ARG_OF_PERICENTER":266.5916,"MEAN_ANOMALY":166.5187,"EPHEMERIS_TYPE":0,"CLASSIFICATION_TYPE":"U","NORAD_CAT_ID":57506,"ELEMENT_SET_NO":999,"REV_AT_EPOCH":578,"BSTAR":0.0014601624,"MEAN_MOTION_DOT":0.0003906,"MEAN_MOTION_DDOT":0},{"OBJECT_NAME":"REAL","OBJECT_ID":"2025-154G","EPOCH":"2026-03-09T17:20:09.670560","MEAN_MOTION":15.28408058,"ECCENTRICITY":0.00018528,"INCLINATION":97.4133,"RA_OF_ASC_NODE":137.2581,"ARG_OF_PERICENTER":118.5876,"MEAN_ANOMALY":241.555,"EPHEMERIS_TYPE":0,"CLASSIFICATION_TYPE":"U","NORAD_CAT_ID":64875,"ELEMENT_SET_NO":999,"REV_AT_EPOCH":3483,"BSTAR":0.0008290401,"MEAN_MOTION_DOT":0.00022901,"MEAN_MOTION_DDOT":0}]
